BEIJING 1               
1 28890U 05043A   24094.57391323  .00000549  00000+0  11834-3 0  9998
2 28890  98.1878 218.0286 0013719 280.6385  79.3271 14.62213008982993
HJ-1A                   
1 33320U 08041A   24094.57780256  .00001769  00000+0  24260-3 0  9992
2 33320  97.6350 105.2899 0018826 253.3219 106.5927 14.79502653839223
HJ-1B                   
1 33321U 08041B   24094.59984822  .00001347  00000+0  18295-3 0  9993
2 33321  97.6313 109.8477 0037137 301.0443  58.7126 14.79935095839253
YAOGAN 4                
1 33446U 08061A   24094.56747250  .00001706  00000+0  23531-3 0  9990
2 33446  97.8751  27.9051 0015518 162.9525 197.2211 14.79393694826524
DEIMOS-1                
1 35681U 09041A   24094.62039317  .00000968  00000+0  15747-3 0  9996
2 35681  97.6801 280.5500 0000096 215.3154 144.8049 14.73129719788335
UK-DMC 2                
1 35683U 09041C   24094.55778989  .00001337  00000+0  21539-3 0  9992
2 35683  97.7697 245.3367 0001158  84.7820 275.3521 14.73026739787971
RISAT 1                 
1 38248U 12017A   24094.51279542  .00008239  00000+0  36418-3 0  9996
2 38248  97.5301 111.7424 0004685 128.5664 231.5992 15.21959361658212
DMC3-FM1                
1 40715U 15032A   24094.56925329  .00000907  00000+0  11664-3 0  9994
2 40715  97.7612 335.6374 0005976 163.0997 197.0417 14.83455789470514
DMC3-FM2                
1 40716U 15032B   24094.59236491  .00000901  00000+0  11594-3 0  9999
2 40716  97.7663 336.6799 0007740 171.0947 189.0406 14.83459161470515
DMC3-FM3                
1 40717U 15032C   24094.61469696  .00000704  00000+0  92019-4 0  9991
2 40717  97.7710 337.9376 0009289 169.4988 190.6422 14.83433309470523
